0 COSMOS 1362
1 13165U 82040F   13283.52399676  .00000025  00000-0  28207-3 0  5315
2 13165 074.0088 105.3763 0018156 009.5459 004.1395 12.46095730429928
0 COSMOS 1362
1 13165U 82040F   13285.54011880 -.00000003  00000-0  88067-4 0  5326
2 13165 074.0090 102.7130 0018189 006.5677 048.3252 12.46096080430175
0 COSMOS 1362
1 13165U 82040F   13287.63064243 -.00000036  00000-0 -14008-3 0  5330
2 13165 074.0094 099.9515 0018188 003.3693 066.3838 12.46096373430439
0 COSMOS 1362
1 13165U 82040F   13289.72839956 -.00000044  00000-0 -19355-3 0  5343
2 13165 074.0099 097.1806 0018234 000.1586 116.8952 12.46096244430698
0 COSMOS 1362
1 13165U 82040F   13291.89441116 -.00000011  00000-0  32319-4 0  5351
2 13165 074.0104 094.3198 0018289 357.0150 113.4247 12.46096086430963
0 COSMOS 1362
1 13165U 82040F   13293.90167576  .00000006  00000-0  14960-3 0  5365
2 13165 074.0105 091.6683 0018327 354.0953 117.8350 12.46095879431215
0 COSMOS 1362
1 13165U 82040F   13295.90928301  .00000011  00000-0  18888-3 0  5378
2 13165 074.0107 089.0167 0018362 351.0191 123.9364 12.46095865431460
